{
  "norad_id": 64498,
  "name": "STARLINK-34427",
  "history": [
    {
      "epoch": "2026-03-28T06:10:15.668256Z",
      "apogee_km": 476.07286438018764,
      "perigee_km": 474.3101882832152,
      "latitude_deg": 2.786668789155568e-06,
      "longitude_deg": 112.12674725721338,
      "height_km": 476.0538532864287,
      "semi_major_axis_km": 6853.328526331701,
      "eccentricity": 0.0001286,
      "inclination_deg": 53.1606,
      "raan_deg": 30.3722,
      "arg_perigee_deg": 87.6723,
      "mean_anomaly_deg": 272.4425,
      "mean_motion_rev_day": 15.30207885
    },
    {
      "epoch": "2026-03-29T02:32:56.246784Z",
      "apogee_km": 476.18025236706035,
      "perigee_km": 474.40932559278735,
      "latitude_deg": 1.2395475823640664e-05,
      "longitude_deg": 161.6762847847768,
      "height_km": 476.01923412758254,
      "semi_major_axis_km": 6853.431788979924,
      "eccentricity": 0.0001292,
      "inclination_deg": 53.1605,
      "raan_deg": 26.4277,
      "arg_perigee_deg": 78.6884,
      "mean_anomaly_deg": 281.4262,
      "mean_motion_rev_day": 15.30173301
    }
  ]
}